#cP2017  9  1  0  0  0.00000000      96   u+U IGb08 FIT  WHU
## 1964 432000.00000000   900.00000000 57997     0.000000000
+   83   G01G02G03G06G07G08G09G10G11G12G13G14G15G16G17G18G19
+        G20G21G22G23G24G25G26G27G28G29G30G31G32R01R02R03R04
+        R05R06R07R08R09R10R11R13R15R16R17R18R19R20R21R22R23
+        R24E01E02E03E04E05E07E08E09E11E12E14E18E19E22E24E26
+        E30C01C02C04C05C06C07C08C09C10C11C12C13C14J01  0  0
+          0  0  0  0  0  0  0  0  0  0  0  0  0  0  0  0  0
+          0  0  0  0  0  0  0  0  0  0  0  0  0  0  0  0  0
+          0  0  0  0  0  0  0  0  0  0  0  0  0  0  0  0  0
+          0  0  0  0  0  0  0  0  0  0  0  0  0  0  0  0  0
+          0  0  0  0  0  0  0  0  0  0  0  0  0  0  0  0  0
++         3  3  4  3  4  3  4  4  3  3  4  3  4  3  4  4  3
++         3  4  4  3  4  3  4  4  3  4  4  3  4  3  3  4  4
++         4  3  4  3  3  3  3  3  3  3  3  3  3  3  3  3  3
++         3  9  9  9  9  9  9  9  9  9  9  0  0  9  9 10  9
++         9 10  8 10  9  9  9 10 10 10 10 10 10 10  0  0  0
++         0  0  0  0  0  0  0  0  0  0  0  0  0  0  0  0  0
++         0  0  0  0  0  0  0  0  0  0  0  0  0  0  0  0  0
++         0  0  0  0  0  0  0  0  0  0  0  0  0  0  0  0  0
++         0  0  0  0  0  0  0  0  0  0  0  0  0  0  0  0  0
++         0  0  0  0  0  0  0  0  0  0  0  0  0  0  0  0  0
%c M  cc GPS ccc cccc cccc cccc cccc ccccc ccccc ccccc ccccc
%c cc cc ccc ccc cccc cccc cccc cccc ccccc ccccc ccccc ccccc
%f  1.2500000  1.025000000  0.00000000000  0.000000000000000
%f  0.0000000  0.000000000  0.00000000000  0.000000000000000
%i    0    0    0    0      0      0      0      0         0
%i    0    0    0    0      0      0      0      0         0
/* GNSS RESEARCH CENTER, WUHAN UNIVERSITY (WHU), P. R. CHINA
/* POSITION AND NAVIGATION DATA ANALYST (PANDA) SOFTWARE    
/* PCV:IGS08_1962 OL/AL:FES2004  NONE     NN ORB:CoM CLK:CoN
/*
*  2017  9  1 11 30  0.00000000
PG01  13437.541065 -22609.734185  -2516.818739     55.547057
PG02 -18786.960799   9202.240996 -15662.975783    340.633331
PG03   9749.555057 -13698.217978 -20561.969728    -72.608199
PG06 -14041.217063  -5932.178747 -21736.012012    393.670224
PG07   1932.433866 -21416.526174  15486.277241    308.301961
PG08  10796.397959 -11454.004151  21427.742826    -71.957262
PG09  -6051.082890 -24648.882445  -7833.985869    435.370637
PG10  20115.219706  10936.968926  13594.586174     53.184142
PG11  10029.164143 -23535.807176   6740.812793   -712.874647
PG12 -14580.001204  10939.794516 -19411.352373    374.174569
PG13 -14499.181502   3886.984143  21799.902378    -90.655050
PG14  16770.702022  13741.168540 -15172.002144    -82.473894
PG15  -8487.919008  15036.311178  19911.296305   -355.350234
PG16  25881.844746   -504.315515   6693.313554     36.923647
PG17 -14413.181367 -20972.696038  -7515.049697   -159.917348
PG18  10343.753120  15167.513630  19841.263618    628.533046
PG19 -16379.032228 -14216.851486 -15449.144767   -488.359737
PG20 -14500.935366  13520.207605  17518.206246    485.179600
PG21   3263.568840  19814.464021  18128.294984   -482.780372
PG22  18098.442496 -11325.545973 -15583.572547   -107.338199
PG23   1985.495942 -21135.982466 -15433.761849   -216.919713
PG24 -14407.848963  22138.703152    547.200298    -39.330268
PG25  -1074.416502  14898.731803 -22117.592636   -448.825629
PG26  26039.729391   4096.680701  -3642.435419   -437.761728
PG27  16389.249532   1366.698826  20842.206775    318.868454
PG28 -16120.844734 -13672.908585  16706.769567    642.171476
PG29   2507.886272  24302.481568 -10450.993209    568.093037
PG30  -7789.394879 -14486.714404  20834.876973    142.867202
PG31  15678.325632   3334.108017 -21177.594696    178.125722
PG32  16686.143160  18208.857525  -9821.914738   -492.981385
PR01  -8636.763240 -14841.901783 -18864.359504     14.875448
PR02 -21803.606104 -12998.252970  -2217.717522    268.076103
PR03 -20641.840526  -3210.080691  14651.218294    109.566604
PR04  -7021.897425   8648.015955  22963.691927    229.050459
PR05  10014.436153  15063.185909  17976.765531   -156.978006
PR06  22260.845755  12409.205774   1380.066364    116.924930
PR07  20521.849464   3073.211775 -14821.781850    -15.242196
PR08   7617.897036  -8260.048619 -22846.514064    -26.772461
PR09  13414.176970   3943.491319 -21301.687489     36.571713
PR10  22379.675448  -9048.838689  -8118.500920      9.736292
PR11  17493.742445 -15791.642537   9714.612082     -9.129198
PR13 -14668.875334  -2253.084192  20737.815612     -2.276449
PR15 -19206.896454  15208.226218  -6926.304515     -0.617521
PR16  -2495.145520  13532.759198 -21471.119657     73.197448
PR17 -10618.841459   3271.563620 -22956.478838     68.096145
PR18  -6410.447212  19747.318167 -14854.149636    164.463425
PR19   1070.277388  25390.459504   2166.369217    -21.815621
PR20   8423.160538  15496.511556  18446.856745   -305.537409
PR21  10520.716410  -3443.372843  22976.131445    132.113012
PR22   5861.304615 -20644.898264  13683.913432     27.248190
PR23  -2749.335212 -24882.090377  -4922.434969    105.143519
PR24  -8816.991684 -15051.724988 -18639.037617   -155.189953
PE01  25549.008586   -553.736608 -14920.163117   -150.803127
PE02 -25567.733714    566.897415  14914.585090     -8.078721
PE03 -25803.884777 -10531.552317   9992.976672     66.429566
PE04  17975.122872  -6558.522727 -22576.800816    129.402575
PE05 -18511.453986 -21480.967184  -8479.967299    428.654183
PE07    389.334150  19843.801421  21970.641105    177.394427
PE08 -17897.182037   6574.344690  22652.560732   6748.471610
PE09   -612.898939 -19696.039290 -22078.960918   7029.063996
PE11   4980.965970 -29056.658737   2576.640774   1800.560278
PE12  14757.913278 -17455.350342  18796.678599   2294.645188
PE14  17570.093384  11720.023799  14336.606373   6723.678771
PE18 -20725.452458    410.751857 -23493.346914   6834.343857
PE19  25793.310663  11871.202826  -8370.146871     13.694385
PE22 -16338.222069  -3822.160001 -24399.480992   6580.694964
PE24  10956.828173 -18850.077149  20018.114941   5734.589702
PE26   7931.395474  23894.155713  15553.742237   6890.978118
PE30 -25928.227166  13776.093657  -3778.457129   6523.623037
PC01 -32294.992785  27102.963511  -1026.620660    427.779411
PC02   4378.545336  41911.189806    532.212947     84.131887
PC04 -39615.016656  14438.910210   -605.260125     95.817648
PC05  21928.015625  35995.327149    764.471503    304.853008
PC06  -8536.389932  24376.449424  33595.928269     -2.015279
PC07 -24862.625377  27297.608412 -20601.744003     99.767196
PC08 -13793.836490  37705.235233 -12425.645090   -582.334920
PC09   6582.451669  31867.668472  27110.003500   -894.761737
PC10 -10194.671445  28448.482413 -29420.424727    135.779820
PC11   2644.089970  27371.712241  -4415.469964    517.824502
PC12  -9981.178103  16748.540465 -19881.876927    173.902721
PC13  -4349.885949  41723.346089   2530.102422    707.821405
PC14   2258.851160  16995.492360  22080.594774    854.508666
PJ01 -28405.367957  25008.392084  23737.448374    -41.308202
EOF
